NORAD_CAT_ID,OBJECT_NAME,OBJECT_TYPE,EPOCH,MEAN_MOTION,ECCENTRICITY,INCLINATION,RA_OF_ASC_NODE,ARG_OF_PERICENTER,MEAN_ANOMALY,BSTAR,MEAN_MOTION_DOT,MEAN_MOTION_DDOT,TLE_LINE0,TLE_LINE1,TLE_LINE2,SEMIMAJOR_AXIS,PERIOD,APOGEE,PERIGEE,DECAYED
55297.0,STARLINK-5284,PAYLOAD,2023-05-23 14:00:01,15.44138934,0.0003477,70.0011,81.1123,271.9328,137.5072,-0.020278,-0.00849863,0.0,0 STARLINK-5284,1 55297U 23010AE  23143.58334491 -.00849863  00000-0 -20278-1 0  9994,2 55297  70.0011  81.1123 0003477 271.9328 137.5072 15.44138934 19959,6812.046,93.256,436.28,431.543,0.0
55297.0,STARLINK-5284,PAYLOAD,2023-05-23 22:00:00,15.43547779,0.0003494,70.0014,80.2112,270.7871,190.6978,-0.023236,-0.00958208,0.0,0 STARLINK-5284,1 55297U 23010AE  23143.91667824 -.00958208  00000-0 -23236-1 0  9991,2 55297  70.0014  80.2112 0003494 270.7871 190.6978 15.43547779  1304,6813.785,93.292,438.031,433.27,0.0
55297.0,STARLINK-5284,PAYLOAD,2023-05-24 06:00:00,15.42846166,0.000344,70.0011,79.3108,275.8219,236.9563,-0.021516,-0.00873361,0.0,0 STARLINK-5284,1 55297U 23010AE  23144.25001157 -.00873361  00000-0 -21516-1 0  9995,2 55297  70.0011  79.3108 0003440 275.8219 236.9563 15.42846166 20067,6815.851,93.334,440.061,435.371,0.0
55297.0,STARLINK-5284,PAYLOAD,2023-05-24 22:00:00,15.41587738,0.0003489,70.0012,77.5126,266.6907,346.2913,-0.024682,-0.00953267,0.0,0 STARLINK-5284,1 55297U 23010AE  23144.91667824 -.00953267  00000-0 -24682-1 0  9998,2 55297  70.0012  77.5126 0003489 266.6907 346.2913 15.41587738 20164,6819.56,93.41,443.804,439.045,0.0
55297.0,STARLINK-5284,PAYLOAD,2023-05-25 14:00:01,15.40223596,0.0003467,70.0008,75.7179,268.0159,82.0707,-0.023047,-0.00858233,0.0,0 STARLINK-5284,1 55297U 23010AE  23145.58334491 -.00858233  00000-0 -23047-1 0  9994,2 55297  70.0008  75.7179 0003467 268.0159  82.0707 15.40223596 20263,6823.586,93.493,447.817,443.085,0.0
55297.0,STARLINK-5284,PAYLOAD,2023-05-26 00:00:02,15.39441361,0.0003396,70.0008,74.5981,270.5227,228.7107,-0.025603,-0.00923389,0.0,0 STARLINK-5284,1 55297U 23010AE  23146.00002315 -.00923389  00000-0 -25603-1 0  9994,2 55297  70.0008  74.5981 0003396 270.5227 228.7107 15.39441361  1303,6825.897,93.54,450.08,445.444,0.0
55297.0,STARLINK-5284,PAYLOAD,2023-05-26 06:00:00,15.38945931,0.0003458,70.0006,73.9268,275.0973,168.9325,-0.024989,-0.00889528,0.0,0 STARLINK-5284,1 55297U 23010AE  23146.25001157 -.00889528  00000-0 -24989-1 0  9996,2 55297  70.0006  73.9268 0003458 275.0973 168.9325 15.38945931 20375,6827.362,93.571,451.588,446.866,0.0
55297.0,STARLINK-5284,PAYLOAD,2023-05-26 14:00:01,15.38261693,0.0003316,70.0007,73.0329,269.4117,220.4373,-0.024195,-0.0084563,0.0,0 STARLINK-5284,1 55297U 23010AE  23146.58334491 -.00845630  00000-0 -24195-1 0  9997,2 55297  70.0007  73.0329 0003316 269.4117 220.4373 15.38261693  1300,6829.386,93.612,453.516,448.987,0.0
55297.0,STARLINK-5284,PAYLOAD,2023-05-26 22:00:01,15.37675808,0.0003327,70.0009,72.1396,268.5648,266.3532,-0.02842,-0.00963651,0.0,0 STARLINK-5284,1 55297U 23010AE  23146.91668981 -.00963651  00000-0 -28420-1 0  9997,2 55297  70.0009  72.1396 0003327 268.5648 266.3532 15.37675808 20478,6831.121,93.648,455.259,450.713,0.0
55297.0,STARLINK-5284,PAYLOAD,2023-05-27 14:00:01,15.3630414,0.0003287,70.0008,70.3556,266.5952,355.9754,-0.025683,-0.00842584,0.0,0 STARLINK-5284,1 55297U 23010AE  23147.58334491 -.00842584  00000-0 -25683-1 0  9996,2 55297  70.0008  70.3556 0003287 266.5952 355.9754 15.36304140 20575,6835.187,93.731,459.298,454.805,0.0
55297.0,STARLINK-5284,PAYLOAD,2023-05-27 22:00:00,15.35714414,0.0003374,70.001,69.465,267.0566,38.1744,-0.030038,-0.00956505,0.0,0 STARLINK-5284,1 55297U 23010AE  23147.91667824 -.00956505  00000-0 -30038-1 0  9991,2 55297  70.0010  69.4650 0003374 267.0566  38.1744 15.35714414 20629,6836.936,93.767,461.108,456.495,0.0
55297.0,STARLINK-5284,PAYLOAD,2023-05-28 06:00:00,15.3504502,0.0003435,70.0007,68.5752,273.1448,73.9767,-0.029071,-0.00910081,0.0,0 STARLINK-5284,1 55297U 23010AE  23148.25001157 -.00910081  00000-0 -29071-1 0  9994,2 55297  70.0007  68.5752 0003435 273.1448  73.9767 15.35045020  1309,6838.924,93.808,463.138,458.44,0.0
55297.0,STARLINK-5284,PAYLOAD,2023-05-28 14:00:01,15.34343959,0.0003348,70.0008,67.6861,267.5597,120.6925,-0.02712,-0.00836062,0.0,0 STARLINK-5284,1 55297U 23010AE  23148.58334491 -.00836062  00000-0 -27120-1 0  9999,2 55297  70.0008  67.6861 0003348 267.5597 120.6925 15.34343959 20720,6841.007,93.851,465.162,460.581,0.0
55297.0,STARLINK-5284,PAYLOAD,2023-05-28 22:00:00,15.33753861,0.0003308,70.0012,66.7982,268.7864,159.7798,-0.031787,-0.00951171,0.0,0 STARLINK-5284,1 55297U 23010AE  23148.91667824 -.00951171  00000-0 -31787-1 0  9998,2 55297  70.0012  66.7982 0003308 268.7864 159.7798 15.33753861 20777,6842.761,93.887,466.89,462.363,0.0
55297.0,STARLINK-5284,PAYLOAD,2023-05-29 03:58:49,15.34910161,0.0002083,69.9989,66.1407,263.468,96.6261,-0.0083477,-0.00273577,0.0,0 STARLINK-5284,1 55297U 23010AE  23149.16584616 -.00273577  00000-0 -83477-2 0  9994,2 55297  69.9989  66.1407 0002083 263.4680  96.6261 15.34910161 20818,6839.324,93.817,462.614,459.765,0.0
55297.0,STARLINK-5284,PAYLOAD,2023-05-29 11:48:32,15.34372485,0.0003595,69.9992,65.2758,275.8745,84.2023,-0.0083514,-0.00269276,0.0,0 STARLINK-5284,1 55297U 23010AE  23149.49203862 -.00269276  00000-0 -83514-2 0  9994,2 55297  69.9992  65.2758 0003595 275.8745  84.2023 15.34372485 21179,6840.922,93.849,465.246,460.328,0.0
55297.0,STARLINK-5284,PAYLOAD,2023-05-29 14:00:01,15.32389551,0.0003164,70.001,65.0247,267.8011,239.0894,-0.028897,-0.00837252,0.0,0 STARLINK-5284,1 55297U 23010AE  23149.58334491 -.00837252  00000-0 -28897-1 0  9994,2 55297  70.0010  65.0247 0003164 267.8011 239.0894 15.32389551 20886,6846.822,93.971,470.854,466.521,0.0
55297.0,STARLINK-5284,PAYLOAD,2023-05-29 21:12:39,15.3342141,0.0005255,69.9987,64.2327,288.7285,71.3322,-0.0076672,-0.00240869,0.0,0 STARLINK-5284,1 55297U 23010AE  23149.88379064 -.00240869  00000-0 -76672-2 0  9999,2 55297  69.9987  64.2327 0005255 288.7285  71.3322 15.33421410 21239,6843.75,93.908,469.212,462.019,0.0
55297.0,STARLINK-5284,PAYLOAD,2023-05-29 22:00:00,15.3178804,0.0003167,70.0014,64.1392,270.7031,274.1596,-0.033249,-0.0093635,0.0,0 STARLINK-5284,1 55297U 23010AE  23149.91667824 -.00936350  00000-0 -33249-1 0  9996,2 55297  70.0014  64.1392 0003167 270.7031 274.1596 15.31788040 20939,6848.615,94.008,472.649,468.311,0.0
55297.0,STARLINK-5284,PAYLOAD,2023-05-30 14:00:01,15.30436409,0.0003156,70.0014,62.3712,268.2214,350.2666,-0.030816,-0.00839742,0.0,0 STARLINK-5284,1 55297U 23010AE  23150.58334491 -.00839742  00000-0 -30816-1 0  9996,2 55297  70.0014  62.3712 0003156 268.2214 350.2666 15.30436409 21032,6852.646,94.091,476.674,472.349,0.0
55297.0,STARLINK-5284,PAYLOAD,2023-05-30 22:00:00,15.29827203,0.0003222,70.0016,61.4885,270.3809,23.7367,-0.03509,-0.00930158,0.0,0 STARLINK-5284,1 55297U 23010AE  23150.91667824 -.00930158  00000-0 -35090-1 0  9994,2 55297  70.0016  61.4885 0003222 270.3809  23.7367 15.29827203 21082,6854.465,94.128,478.539,474.122,0.0
55297.0,STARLINK-5284,PAYLOAD,2023-05-31 00:00:02,15.29635877,0.0003266,70.0016,61.268,274.5595,118.4163,-0.033292,-0.00881441,0.0,0 STARLINK-5284,1 55297U 23010AE  23151.00002315 -.00881441  00000-0 -33292-1 0  9995,2 55297  70.0016  61.2680 0003266 274.5595 118.4163 15.29635877  1302,6855.037,94.14,479.141,474.663,0.0
55297.0,STARLINK-5284,PAYLOAD,2023-05-31 14:00:01,15.28483124,0.0003259,70.0016,59.726,269.9102,93.1358,-0.032935,-0.00844548,0.0,0 STARLINK-5284,1 55297U 23010AE  23151.58334491 -.00844548  00000-0 -32935-1 0  9991,2 55297  70.0016  59.7260 0003259 269.9102  93.1358 15.28483124  1302,6858.483,94.211,482.583,478.113,0.0
55297.0,STARLINK-5284,PAYLOAD,2023-05-31 22:00:00,15.27866978,0.0003254,70.0019,58.846,272.723,123.6085,-0.03711,-0.00938067,0.0,0 STARLINK-5284,1 55297U 23010AE  23151.91667824 -.00938067  00000-0 -37110-1 0  9997,2 55297  70.0019  58.8460 0003254 272.7230 123.6085 15.27866978  1303,6860.327,94.249,484.424,479.96,0.0
55297.0,STARLINK-5284,PAYLOAD,2023-06-01 06:00:00,15.27228286,0.0003142,70.0015,57.967,278.8682,149.9574,-0.038134,-0.0094479,0.0,0 STARLINK-5284,1 55297U 23010AE  23152.25001157 -.00944790  00000-0 -38134-1 0  9993,2 55297  70.0015  57.9670 0003142 278.8682 149.9574 15.27228286 21294,6862.239,94.288,486.261,481.948,0.0
55297.0,STARLINK-5284,PAYLOAD,2023-06-01 12:00:02,15.26689106,0.0003164,70.0018,57.3083,271.3327,91.4415,-0.035283,-0.0085557,0.0,0 STARLINK-5284,1 55297U 23010AE  23152.50002315 -.00855570  00000-0 -35283-1 0  9997,2 55297  70.0018  57.3083 0003164 271.3327  91.4415 15.26689106  1303,6863.855,94.322,487.892,483.548,0.0
55297.0,STARLINK-5284,PAYLOAD,2023-06-01 22:00:00,15.259035,0.0003129,70.002,56.2118,273.9619,217.5444,-0.03896,-0.00928459,0.0,0 STARLINK-5284,1 55297U 23010AE  23152.91667824 -.00928459  00000-0 -38960-1 0  9996,2 55297  70.0020  56.2118 0003129 273.9619 217.5444 15.25903500  1305,6866.211,94.37,490.224,485.927,0.0
55297.0,STARLINK-5284,PAYLOAD,2023-06-02 14:00:01,15.24579932,0.0003039,70.0018,54.4599,270.0784,280.9604,-0.037761,-0.0085886,0.0,0 STARLINK-5284,1 55297U 23010AE  23153.58334491 -.00858860  00000-0 -37761-1 0  9997,2 55297  70.0018  54.4599 0003039 270.0784 280.9604 15.24579932 21497,6870.184,94.452,494.137,489.961,0.0
55297.0,STARLINK-5284,PAYLOAD,2023-06-02 22:00:00,15.2393955,0.0003081,70.002,53.5853,272.6823,306.9577,-0.040733,-0.00916012,0.0,0 STARLINK-5284,1 55297U 23010AE  23153.91667824 -.00916012  00000-0 -40733-1 0  9990,2 55297  70.0020  53.5853 0003081 272.6823 306.9577 15.23939550 21541,6872.109,94.492,496.091,491.856,0.0
55297.0,STARLINK-5284,PAYLOAD,2023-06-03 14:00:01,15.2262599,0.0003128,70.0019,51.8386,268.4272,6.0485,-0.040254,-0.00863354,0.0,0 STARLINK-5284,1 55297U 23010AE  23154.58334491 -.00863354  00000-0 -40254-1 0  9993,2 55297  70.0019  51.8386 0003128 268.4272   6.0485 15.22625990  1301,6876.06,94.573,500.076,495.775,0.0
